[Satellite]
VERSION=1.1
NAME=COSMOS 2443 (725)
NICKNAME=COSMOS 2443 (725)
TLE1=1 33379U 08046B   15055.12414412 -.00000008  00000-0  10000-3 0  9991
TLE2=2 33379  65.0677  93.5690 0019066 190.8557 142.8988  2.13101595 49928
